IRIDIUM 119             
1 42959U 17061E   23304.87933623  .00000420  00000+0  14287-3 0  9997
2 42959  86.3968  66.1431 0001661  94.6804 265.4582 14.34219924317313
IRIDIUM 107             
1 42960U 17061F   23304.40997837  .00000535  00000+0  18398-3 0  9999
2 42960  86.3968  66.3548 0001898  99.6465 260.4945 14.34221465317250
IRIDIUM 132             
1 42961U 17061G   23304.41632237  .00000516  00000+0  17722-3 0  9990
2 42961  86.3968  66.3381 0001862  97.4505 262.6903 14.34221670317254
IRIDIUM 136             
1 42962U 17061H   23304.58757309  .00000554  00000+0  19066-3 0  9992
2 42962  86.3968  66.2688 0001901  88.3573 271.7841 14.34221198317293
IRIDIUM 139             
1 42963U 17061J   23304.73345718  .00000503  00000+0  17256-3 0  9990
2 42963  86.3971  66.2546 0001912  98.6632 261.4781 14.34220178317323
IRIDIUM 125             
1 42964U 17061K   23304.58123393  .00000544  00000+0  18720-3 0  9999
2 42964  86.3972  66.3617 0001800  96.7149 263.4251 14.34220906317315
IRIDIUM 135             
1 43070U 17083A   23304.69489788  .00000467  00000+0  15961-3 0  9995
2 43070  86.4010   3.0273 0002478  97.8605 262.2872 14.34218047306626
IRIDIUM 138             
1 43071U 17083B   23304.58072892  .00000433  00000+0  14754-3 0  9990
2 43071  86.3998   2.8211 0001961  93.3495 266.7925 14.34220070306597
